NORAD_CAT_ID,OBJECT_NAME,OBJECT_TYPE,EPOCH,MEAN_MOTION,ECCENTRICITY,INCLINATION,RA_OF_ASC_NODE,ARG_OF_PERICENTER,MEAN_ANOMALY,BSTAR,MEAN_MOTION_DOT,MEAN_MOTION_DDOT,TLE_LINE0,TLE_LINE1,TLE_LINE2,SEMIMAJOR_AXIS,PERIOD,APOGEE,PERIGEE,DECAYED
56469.0,STARLINK-5518,PAYLOAD,2023-12-04 14:19:39,14.98362431,0.0002751,70.0021,47.5306,251.9334,108.1525,0.000395,4.627e-05,0.0,0 STARLINK-5518,1 56469U 23064X   23338.59697952  .00004627  00000-0  39500-3 0  9995,2 56469  70.0021  47.5306 0002751 251.9334 108.1525 14.98362431 31994,6950.093,96.105,573.87,570.046,0.0
56469.0,STARLINK-5518,PAYLOAD,2023-12-05 11:09:26,14.98302374,0.0002856,70.0042,45.3473,218.9961,141.0992,0.00030845,3.587e-05,0.0,0 STARLINK-5518,1 56469U 23064X   23339.46489344  .00003587  00000-0  30845-3 0  9993,2 56469  70.0042  45.3473 0002856 218.9961 141.0992 14.98302374 32482,6950.278,96.109,574.128,570.158,0.0
56469.0,STARLINK-5518,PAYLOAD,2023-12-05 14:21:43,14.98302616,0.0002552,70.0025,45.0061,242.131,117.9591,0.00026105,3.021e-05,0.0,0 STARLINK-5518,1 56469U 23064X   23339.59841670  .00003021  00000-0  26105-3 0  9998,2 56469  70.0025  45.0061 0002552 242.1310 117.9591 14.98302616 32142,6950.278,96.109,573.916,570.369,0.0
56469.0,STARLINK-5518,PAYLOAD,2023-12-06 04:46:55,14.98333264,0.0003138,70.0013,43.4887,255.2244,104.8567,-0.00024094,-2.967e-05,0.0,0 STARLINK-5518,1 56469U 23064X   23340.19925437 -.00002967  00000-0 -24094-3 0  9995,2 56469  70.0013  43.4887 0003138 255.2244 104.8567 14.98333264 32599,6950.183,96.107,574.229,569.867,0.0
56469.0,STARLINK-5518,PAYLOAD,2023-12-06 12:47:35,14.98339521,0.000283,70.0024,42.6506,240.2209,119.8669,-0.00039219,-4.77e-05,0.0,0 STARLINK-5518,1 56469U 23064X   23340.53305335 -.00004770  00000-0 -39219-3 0  9991,2 56469  70.0024  42.6506 0002830 240.2209 119.8669 14.98339521 32280,6950.163,96.106,573.995,570.062,0.0
56469.0,STARLINK-5518,PAYLOAD,2023-12-07 11:13:25,14.98361825,0.000251,70.0026,40.2944,224.0288,136.0671,3.4837e-05,3.23e-06,0.0,0 STARLINK-5518,1 56469U 23064X   23341.46765926  .00000323  00000-0  34837-4 0  9990,2 56469  70.0026  40.2944 0002510 224.0288 136.0671 14.98361825 32785,6950.094,96.105,573.704,570.215,0.0
56469.0,STARLINK-5518,PAYLOAD,2023-12-07 14:25:41,14.98363569,0.0002106,70.0021,39.9563,248.5659,111.5276,9.21e-05,1.007e-05,0.0,0 STARLINK-5518,1 56469U 23064X   23341.60117569  .00001007  00000-0  92100-4 0  9997,2 56469  70.0021  39.9563 0002106 248.5659 111.5276 14.98363569 32445,6950.089,96.105,573.418,570.49,0.0
56469.0,STARLINK-5518,PAYLOAD,2023-12-08 03:14:48,14.98325063,0.0003246,70.0012,38.6087,267.4469,92.6318,2.0747e-05,1.55e-06,0.0,0 STARLINK-5518,1 56469U 23064X   23342.13528034  .00000155  00000-0  20747-4 0  9990,2 56469  70.0012  38.6087 0003246 267.4469  92.6318 14.98325063 32888,6950.208,96.107,574.329,569.817,0.0
56469.0,STARLINK-5518,PAYLOAD,2023-12-08 11:15:29,14.98313884,0.0002897,70.0018,37.7688,255.8404,104.2433,-6.9265e-05,-9.19e-06,0.0,0 STARLINK-5518,1 56469U 23064X   23342.46909076 -.00000919  00000-0 -69265-4 0  9993,2 56469  70.0018  37.7688 0002897 255.8404 104.2433 14.98313884 32934,6950.243,96.108,574.121,570.094,0.0
56469.0,STARLINK-5518,PAYLOAD,2023-12-08 14:27:45,14.9831754,0.0002729,70.0012,37.4306,253.795,106.2909,-9.4717e-05,-1.222e-05,0.0,0 STARLINK-5518,1 56469U 23064X   23342.60261025 -.00001222  00000-0 -94717-4 0  9992,2 56469  70.0012  37.4306 0002729 253.7950 106.2909 14.98317540 32594,6950.231,96.108,573.993,570.2,0.0
56469.0,STARLINK-5518,PAYLOAD,2023-12-09 11:17:29,14.98338576,0.0003408,70.0003,35.2427,264.5257,95.5513,-0.00024708,-3.041e-05,0.0,0 STARLINK-5518,1 56469U 23064X   23343.47048216 -.00003041  00000-0 -24708-3 0  9996,2 56469  70.0003  35.2427 0003408 264.5257  95.5513 14.98338576 33087,6950.166,96.106,574.4,569.663,0.0
56469.0,STARLINK-5518,PAYLOAD,2023-12-09 12:53:37,14.98338486,0.0003405,70.0004,35.0744,264.6773,95.3997,-0.00024109,-2.969e-05,0.0,0 STARLINK-5518,1 56469U 23064X   23343.53724176 -.00002969  00000-0 -24109-3 0  9992,2 56469  70.0004  35.0744 0003405 264.6773  95.3997 14.98338486 32734,6950.167,96.106,574.398,569.665,0.0
56469.0,STARLINK-5518,PAYLOAD,2023-12-10 12:55:39,14.98320925,0.0003461,70.0001,32.5493,267.817,92.2593,9.3531e-05,1.023e-05,0.0,0 STARLINK-5518,1 56469U 23064X   23344.53864584  .00001023  00000-0  93531-4 0  9995,2 56469  70.0001  32.5493 0003461 267.8170  92.2593 14.98320925 32885,6950.221,96.108,574.491,569.68,0.0
56469.0,STARLINK-5518,PAYLOAD,2023-12-11 12:57:39,14.98328581,0.0003455,70.0001,30.0249,267.7808,92.2956,5.1049e-05,5.16e-06,0.0,0 STARLINK-5518,1 56469U 23064X   23345.54004572  .00000516  00000-0  51049-4 0  9994,2 56469  70.0001  30.0249 0003455 267.7808  92.2956 14.98328581 33034,6950.197,96.107,574.464,569.661,0.0
56469.0,STARLINK-5518,PAYLOAD,2023-12-12 12:59:40,14.9833223,0.0003402,70.0003,27.4998,268.7934,91.2836,5.0833e-05,5.14e-06,0.0,0 STARLINK-5518,1 56469U 23064X   23346.54144344  .00000514  00000-0  50833-4 0  9995,2 56469  70.0003  27.4998 0003402 268.7934  91.2836 14.98332230 33188,6950.186,96.107,574.415,569.687,0.0
56469.0,STARLINK-5518,PAYLOAD,2023-12-13 13:01:41,14.98333441,0.0003302,70.0005,24.9754,266.2831,93.7951,3.437e-05,3.17e-06,0.0,0 STARLINK-5518,1 56469U 23064X   23347.54284156  .00000317  00000-0  34370-4 0  9991,2 56469  70.0005  24.9754 0003302 266.2831  93.7951 14.98333441 33337,6950.182,96.107,574.342,569.752,0.0
56469.0,STARLINK-5518,PAYLOAD,2023-12-14 13:03:42,14.983297,0.0003151,70.0009,22.4506,267.3931,92.6867,-2.0256e-05,-3.35e-06,0.0,0 STARLINK-5518,1 56469U 23064X   23348.54424463 -.00000335  00000-0 -20256-4 0  9999,2 56469  70.0009  22.4506 0003151 267.3931  92.6867 14.98329700 33487,6950.194,96.107,574.249,569.869,0.0
56469.0,STARLINK-5518,PAYLOAD,2023-12-15 11:29:35,14.98331868,0.0003185,70.0007,20.0941,265.8307,94.2488,-1.1354e-05,-2.28e-06,0.0,0 STARLINK-5518,1 56469U 23064X   23349.47888150 -.00000228  00000-0 -11354-4 0  9999,2 56469  70.0007  20.0941 0003185 265.8307  94.2488 14.98331868 33620,6950.187,96.107,574.266,569.838,0.0
56469.0,STARLINK-5518,PAYLOAD,2023-12-16 03:30:56,14.98326774,0.000319,70.0006,18.4107,265.8539,94.2255,-1.0594e-05,-2.19e-06,0.0,0 STARLINK-5518,1 56469U 23064X   23350.14648468 -.00000219  00000-0 -10594-4 0  9996,2 56469  70.0006  18.4107 0003190 265.8539  94.2255 14.98326774 34080,6950.203,96.107,574.285,569.851,0.0
56469.0,STARLINK-5518,PAYLOAD,2023-12-16 11:31:36,14.9832754,0.0003136,70.0007,17.5691,263.0301,97.0501,3.0846e-06,-5.6e-07,0.0,0 STARLINK-5518,1 56469U 23064X   23350.48028416 -.00000056  00000-0  30846-5 0  9999,2 56469  70.0007  17.5691 0003136 263.0301  97.0501 14.98327540 33778,6950.2,96.107,574.245,569.886,0.0
56469.0,STARLINK-5518,PAYLOAD,2023-12-17 03:32:57,14.98326779,0.0002971,70.001,15.8866,258.1833,101.8993,-1.349e-05,-2.54e-06,0.0,0 STARLINK-5518,1 56469U 23064X   23351.14788584 -.00000254  00000-0 -13490-4 0  9998,2 56469  70.0010  15.8866 0002971 258.1833 101.8993 14.98326779 34232,6950.203,96.107,574.133,570.003,0.0
56469.0,STARLINK-5518,PAYLOAD,2023-12-17 11:33:37,14.98325683,0.000301,70.0009,15.0447,260.3842,99.6977,-2.5237e-05,-3.94e-06,0.0,0 STARLINK-5518,1 56469U 23064X   23351.48168770 -.00000394  00000-0 -25237-4 0  9991,2 56469  70.0009  15.0447 0003010 260.3842  99.6977 14.98325683 33921,6950.206,96.107,574.163,569.979,0.0
56469.0,STARLINK-5518,PAYLOAD,2023-12-18 03:34:57,14.98327598,0.0003187,70.0002,13.3571,277.2465,82.8332,0.00018362,2.098e-05,0.0,0 STARLINK-5518,1 56469U 23064X   23352.14928026  .00002098  00000-0  18362-3 0  9994,2 56469  70.0002  13.3571 0003187 277.2465  82.8332 14.98327598 34383,6950.2,96.107,574.28,569.85,0.0
56469.0,STARLINK-5518,PAYLOAD,2023-12-18 11:35:37,14.98336457,0.0003288,70.0003,12.5185,270.3332,89.745,0.00020384,2.34e-05,0.0,0 STARLINK-5518,1 56469U 23064X   23352.48307298  .00002340  00000-0  20384-3 0  9990,2 56469  70.0003  12.5185 0003288 270.3332  89.7450 14.98336457 34432,6950.173,96.107,574.323,569.753,0.0
56469.0,STARLINK-5518,PAYLOAD,2023-12-19 03:36:59,14.9832416,0.0002359,70.0025,10.8379,245.6323,114.459,6.0842e-05,6.33e-06,0.0,0 STARLINK-5518,1 56469U 23064X   23353.15068458  .00000633  00000-0  60842-4 0  9994,2 56469  70.0025  10.8379 0002359 245.6323 114.4590 14.98324160 34535,6950.211,96.107,573.716,570.436,0.0
56469.0,STARLINK-5518,PAYLOAD,2023-12-19 11:37:39,14.98319131,0.0002444,70.0019,9.9947,255.7587,104.3301,-4.7107e-06,-1.49e-06,0.0,0 STARLINK-5518,1 56469U 23064X   23353.48449074 -.00000149  00000-0 -47107-5 0  9991,2 56469  70.0019   9.9947 0002444 255.7587 104.3301 14.98319131 34582,6950.227,96.108,573.79,570.393,0.0
56469.0,STARLINK-5518,PAYLOAD,2023-12-20 03:39:00,14.98331799,0.0002884,70.0006,8.3108,267.6599,92.423,-9.932e-05,-1.278e-05,0.0,0 STARLINK-5518,1 56469U 23064X   23354.15208558 -.00001278  00000-0 -99320-4 0  9993,2 56469  70.0006   8.3108 0002884 267.6599  92.4230 14.98331799 34686,6950.187,96.107,574.057,570.048,0.0
56469.0,STARLINK-5518,PAYLOAD,2023-12-20 11:39:39,14.98367583,0.0002297,70.0007,7.469,262.8182,97.2716,-0.00065191,-7.87e-05,0.0,0 STARLINK-5518,1 56469U 23064X   23354.48587515 -.00007870  00000-0 -65191-3 0  9994,2 56469  70.0007   7.4690 0002297 262.8182  97.2716 14.98367583 34734,6950.077,96.105,573.538,570.345,0.0
56469.0,STARLINK-5518,PAYLOAD,2023-12-21 03:41:00,14.98313713,0.0002844,70.0004,5.7847,262.7284,97.3552,0.00031601,3.678e-05,0.0,0 STARLINK-5518,1 56469U 23064X   23355.15348306  .00003678  00000-0  31601-3 0  9991,2 56469  70.0004   5.7847 0002844 262.7284  97.3552 14.98313713 34832,6950.243,96.108,574.085,570.132,0.0
56469.0,STARLINK-5518,PAYLOAD,2023-12-21 10:05:32,14.98331265,0.0002566,70.0012,5.1137,252.3098,107.7781,9.6377e-05,1.057e-05,0.0,0 STARLINK-5518,1 56469U 23064X   23355.42051921  .00001057  00000-0  96377-4 0  9996,2 56469  70.0012   5.1137 0002566 252.3098 107.7781 14.98331265 34872,6950.189,96.107,573.837,570.271,0.0
